#dP2023 11  3 12  0  0.00000000      96 __u+U IGS20 EXT  IAC
## 2286 475200.00000000   900.00000000 60251 0.5000000000000
+  115   C06C07C08C09C10C11C12C13C14C16C19C20C21C22C23C24C25
+        C26C27C28C29C30C32C33C34C36C37C38C39C40C41C42C43C44
+        C45C46E02E03E04E05E07E08E09E10E11E12E13E15E19E21E24
+        E25E26E27E30E31E33E34E36G01G02G03G04G05G06G07G08G09
+        G10G11G12G13G14G16G17G18G19G20G21G22G23G24G25G26G27
+        G28G29G30G31G32J03J04R01R02R03R04R05R07R08R09R11R12
+        R13R14R15R16R17R18R19R20R21R22R24R25R26  0  0  0  0
++        10  8  9  9  8  9 10  8  8  8  8  9  7  8  8  9  9
++         7  9  9 10  8  8  7  7 10  9 10 10 11  8  8  8  7
++        10  7  7  7  6  7  7  7  8  8  8  9  6  7  8  8  9
++         9  7  7  8  9  8  7  7  8  8  7  6  7  8  8  8  7
++         8  7  7  7  8  7  7  8  8  6  8  6  6  7  8  6  7
++         7  7  6  7  7 10  9  9  7  8  7  7  6  6  9  7  8
++         9  8  8  8  9  8  9  9 10  7  6  9  8  0  0  0  0
%c M  cc GPS ccc cccc cccc cccc cccc ccccc ccccc ccccc ccccc
%c cc cc ccc ccc cccc cccc cccc cccc ccccc ccccc ccccc ccccc
%f  0.0000000  0.000000000  0.00000000000  0.000000000000000
%f  0.0000000  0.000000000  0.00000000000  0.000000000000000
%i    0    0    0    0      0      0      0      0         0
%i    0    0    0    0      0      0      0      0         0
/* IAC                                ULTRA-RAPID PREDICTION
/* S/V CLOCKS ARE ALIGNED TO GNSS TIME                      
/* G:C1WC2W R:C1PC2P E:C1XC5X C:C2IC6I J:C1CC2S             
/* PCV:IGS20_2280 OL/AL:FES2004  NONE     YN ORB:CoN CLK:CoN
*  2023 11 03 19 30  0.00000000
PC06  -7189.379249  23558.768965 -34182.836987     83.302523
PC07 -16791.461175  36907.902482  11282.952798   -261.441474
PC08  -1103.181293  37050.505107  20298.129889    260.996887
PC09   2018.719397  25552.170817 -32962.723669    -42.487453
PC10  -8871.592810  36824.940076  18297.195929     -4.112836
PC11  21104.959099  -9634.661370 -15449.744544    237.500871
PC12  27807.523079   1666.464248   1818.376518    872.428366
PC13   3063.114244  39524.113245  14932.104093    377.377677
PC14  17469.727875 -20447.602663  -7538.666603    713.116551
PC16 -12058.339065  21288.755864 -34127.575001   -157.575156
PC19 -12740.858520  24761.136636  -1674.853692   -974.788444
PC20 -19244.232012  14276.152835  14286.786746    148.059888
PC21  14659.441628   5823.624378 -23015.636945   -969.097041
PC22   1481.284647  21580.269545 -17632.250799   -239.762754
PC23  -9804.986733 -25404.549214   6080.840938   -829.268149
PC24  17280.812025  -1682.638446  21837.857861    560.329552
PC25   4111.962781 -19720.838428  19290.813440    247.513643
PC26  19779.247974  15678.180153  11927.686892   -201.054054
PC27 -25175.925226  -6960.971271  -9845.708601    222.907152
PC28 -11066.328301 -14689.081074 -20977.584766    168.036096
PC29 -11823.926579  14804.387036  20486.569451    196.523655
PC30 -26552.220159   5564.456159   6574.512014     -7.662395
PC32 -14642.447462  -5867.687860  23025.723265   -532.723936
PC33  12649.326287 -24830.900627   1572.108225   -947.585697
PC34  25952.060686  -6476.856153  -7934.670383    295.474075
PC36  -5236.889765  19047.556617 -19695.600283   -150.309588
PC37 -19271.357389 -16662.162429 -11348.019287   -874.188047
PC38  -7015.747279  32668.305456  25861.933262    115.383353
PC39 -16283.882633  20207.462013 -33248.145649     -5.513669
PC40 -24242.153668  32831.777710  10066.952912    -42.597803
PC41   -994.197696 -22033.609512  17143.766921   -871.501893
PC42  19330.369317 -12970.613244 -15370.008001   -506.958517
PC43  12773.594781 -14648.327214 -20024.082038     46.742177
PC44  25316.899710   6161.617218   9948.301178    281.743487
PC45  10203.464119  25386.934797  -5568.266725    -42.617111
PC46 -16641.157017   2909.329602 -22210.405787    -96.936151
PE02  16690.614024   1791.925772  24379.452229     75.420182
PE03  26644.487773  -4323.085742 -12167.874596    -70.754491
PE04 -23319.810194  17138.379604  -6224.969889   -249.233668
PE05  14506.717834  10913.667977 -23384.758650     33.873553
PE07   6678.108897 -19966.104114  20805.864909    -85.870446
PE08  23631.183166 -16885.134246   5725.734327   -171.457193
PE09  -6844.784763  19885.993228 -20832.026182   -214.797703
PE10  -5954.549230  15058.055955  24777.528089   -576.125595
PE11   5145.093961  19714.598778  21465.309477   3169.099292
PE12 -15130.968148   8694.794240  23911.734443   -762.506397
PE13  -4452.270592 -19439.766341 -21864.335572    -19.612003
PE15  15495.315769  -8281.403536 -23812.314659    -66.540692
PE19 -25868.206080   2326.461641  14202.394979  -1289.494700
PE21 -10922.132041 -21414.174621 -17266.766709   -562.274802
PE24  -1954.081092  29540.226439   -748.360519   -411.760789
PE25  10733.730811  21723.726225  17013.684367     -3.742058
PE26 -21861.778593 -18869.254935  -6461.464398    270.398993
PE27   1497.390277 -29554.849917    233.117770   -190.894448
PE30  13138.857474 -19832.479205  17596.100717   -632.860488
PE31 -12879.693027  20204.884811 -17375.516797     -9.332230
PE33 -26164.661455  -8008.192981  11278.125325      1.608028
PE34  26097.138946   7513.824597 -11795.610757    -75.972906
PE36  21481.880348  19063.815737   7170.967845   -139.023658
PG01 -21930.777491 -15307.343142   -715.034744    163.244328
PG02 -20388.519399 -15776.909452  -6289.845577   -533.689481
PG03 -12068.595856 -13868.433325  19062.542677    -37.911164
PG04 -19341.682622  -4488.655293  17708.669146    202.884554
PG05   6316.411769  24109.192940  -9228.568163   -149.006564
PG06  -7126.774224  12786.859904  22229.256135    515.167635
PG07 -22425.708191  -2686.332227 -13870.312930     22.956182
PG08 -11654.197077 -10819.897096 -21402.904941   -150.368726
PG09 -24067.701982   5074.714777  10008.486154    -13.563664
PG10  10872.663074 -18768.070995 -14911.148175    -59.961741
PG11   5071.276434  18914.771161  17987.331447   -444.415271
PG12  10496.954739  16424.101519  17800.618623   -443.077455
PG13    921.975111  15465.035105 -21751.231275    591.327824
PG14 -13359.199171  15406.755452 -16902.571853    232.948794
PG16    177.903159 -25929.622482  -4791.085120   -428.293277
PG17 -22418.201361  13606.935277   5044.763595    723.521359
PG18  21206.372879   1093.695006 -16057.663084   -468.578552
PG19 -17108.533845  15700.212826  12375.515432    393.955042
PG20    618.172564  26399.671944   3718.158768    403.473896
PG21 -18575.821418 -17026.385719  -9226.831984    145.195213
PG22 -10762.352408  21556.710298 -11038.696363     90.608619
PG23  14539.149921  -6109.616073 -21330.062767     92.989104
PG24  20824.147402  15872.018187  -6032.679602   -362.551745
PG25  15122.610523   2708.785101  21357.927541    475.774541
PG26   3957.981330 -25292.074252   6204.619116    219.077315
PG27   2307.208466 -17091.107918 -20339.270489    -64.820255
PG28   8997.015036 -12292.872515  21733.943985    -38.394468
PG29  24386.722288  -2732.448330  10250.518789   -610.231671
PG30 -16162.179507   6939.416954 -19851.484851   -472.022826
PG31    412.359055 -16943.184516  20146.165672   -225.374111
PG32  19252.666092 -16408.283517   7918.118391   -581.304833
PJ03 -28432.218526  22537.081199  26628.512522     -7.050110
PJ04 -31718.935810  27481.777744  10408.024907     71.897864
PR01  15708.377879  -4791.408551 -19525.643872     69.036824
PR02  17912.314805 -17440.206355  -4832.891458    -22.361452
PR03   9390.459145 -20226.011552  12363.365703     88.332029
PR04  -3717.212655 -11662.470424  22398.063391    209.579754
PR05 -15079.172313   3041.799874  20362.009082    121.658498
PR07  -8939.667520  20081.822116 -12958.237975     68.314437
PR08   3965.960582  11599.166759 -22323.196688    -73.167194
PR09  -7559.710002  10445.766831 -21977.566820    151.233391
PR11  10842.913675  22648.786287   4451.946503   -210.613413
PR12  13374.991140   8489.243330  20022.217046     33.044633
PR13   8498.118787  -8159.546414  22609.687987    -40.905802
PR14  -2625.341854 -22654.522892  11455.760740     25.509736
PR15 -11156.309000 -22197.391114  -5777.934063     84.937600
PR16 -13337.907870  -8787.147883 -19890.778393     20.285828
PR17   1224.566220 -10529.661341 -23185.383178     31.639153
PR18 -15872.463938 -10803.498417 -16795.341330    110.143861
PR19 -24293.240466  -7002.487678  -3336.302143   -253.319795
PR20 -19269.755864   3122.363646  16452.557574   -102.896434
PR21   -378.050450  10604.678434  23203.309817    -50.605384
PR22  16251.553578  11433.509306  16021.258048     91.796548
PR24  18774.466106  -4458.577500 -16672.290035    -30.753559
PR25  -1661.615410  10797.658666  23060.025617     -6.511577
PR26   3639.355140  11963.610677 -22214.814098    -18.203135
EOF
